STARLINK-37467          
1 68855U 26094S   26185.61248465 -.00007721  00000+0 -23682-3 0  9993
2 68855  97.2831 199.8806 0001350  75.8108 284.3284 15.33476480 10725
STARLINK-37483          
1 68856U 26094T   26186.00131053  .00045815  00000+0  14110-2 0  9991
2 68856  97.2854 200.2725 0000170  45.9424 314.1833 15.33487533 10785
STARLINK-37468          
1 68857U 26094U   26185.99859552  .00060761  00000+0  18671-2 0  9993
2 68857  97.2834 200.2744 0000345 312.2571  47.8642 15.33483677 10785
STARLINK-37441          
1 68858U 26094V   26185.99587213  .00035120  00000+0  10839-2 0  9995
2 68858  97.2834 200.2776 0001131  93.0429 267.0944 15.33480767 10789
STARLINK-37488          
1 68859U 26094W   26185.99315271  .00052269  00000+0  16071-2 0  9996
2 68859  97.2834 200.2828 0002027  85.4869 274.6605 15.33505746 10789
STARLINK-37388          
1 68860U 26094X   26185.98771980  .00053632  00000+0  16486-2 0  9995
2 68860  97.2826 200.2891 0001438  97.6518 262.4888 15.33506516 10787
STARLINK-37479          
1 68861U 26094Y   26185.98227746  .00046451  00000+0  14299-2 0  9993
2 68861  97.2828 200.2967 0001698  87.8959 272.2478 15.33498987 10788
STARLINK-37453          
1 68862U 26094Z   26185.79467130  .00057416  00000+0  17658-2 0  9991
2 68862  97.2827 200.0938 0000979 102.9601 257.1751 15.33471878 10751
STARLINK-37430          
1 68863U 26094AA  26185.98499636  .00039553  00000+0  12198-2 0  9995
2 68863  97.2832 200.2929 0001602 100.0417 260.1007 15.33479322 10781
KUIPER-00299            
1 68864U 26095A   26185.93364627  .00002209  00000+0  34502-3 0  9995
2 68864  51.8987 170.5030 0001840 226.8484 133.2323 14.76463106 10269
KUIPER-00353            
1 68865U 26095B   26186.25005787 -.01179768  00000+0 -89411-1 0  9996
2 68865  51.9049 156.6914 0002473  19.0696  71.3288 15.05063178  5080
KUIPER-00357            
1 68866U 26095C   26186.00003472 -.00005115  00000+0 -64145-3 0  9991
2 68866  51.9004 164.3906 0000727  55.9928 116.7624 14.80000024  4671
KUIPER-00364            
1 68867U 26095D   26186.00003472 -.00012967  00000+0 -16709-2 0  9997
2 68867  51.9023 166.8938 0002206 146.3928 221.9978 14.80036284  4661
KUIPER-00375            
1 68868U 26095E   26186.25005787 -.02191757  00000+0 -20696+0 0  9990
2 68868  51.8980 158.0125 0002830  42.3672 123.7707 14.97239147  5568
KUIPER-00433            
1 68869U 26095F   26185.95720454  .00003842  00000+0  53283-3 0  9997
2 68869  51.8997 174.5811 0000796  71.5733 288.5316 14.79922097 10210
KUIPER-00437            
1 68870U 26095G   26185.63514760  .00078494  00000+0  20283-2 0  9993
2 68870  51.8782 158.0012 0008794  22.5834 337.5539 15.38386190 10416
KUIPER-00448            
1 68871U 26095H   26186.25005787 -.00016741  00000+0 -23511-2 0  9993
2 68871  51.9030 161.3106 0001873 171.8360   7.4505 14.76603389  4757
KUIPER-00459            
1 68872U 26095J   26186.25005787  .00036066  00000+0  11508-2 0  9997
2 68872  51.8716 156.0388 0010445  20.2302 339.7660 15.32109994  4994
KUIPER-00468            
1 68873U 26095K   26184.32500344  .00034927  00000+0  92731-3 0  9995
2 68873  51.8814 164.2391 0004482 349.2897  10.7993 15.37947257 10210
KUIPER-00476            
1 68874U 26095L   26185.90616669  .00039798  00000+0  11779-2 0  9992
2 68874  51.8723 157.5142 0009461  16.4994 343.6298 15.34463558 10447
KUIPER-00478            
1 68875U 26095M   26186.25005787 -.01375776  00000+0 -65201-1 0  9995
2 68875  51.8813 155.7052 0008168  20.0767 178.3095 15.22087682  5090
KUIPER-00480            
1 68876U 26095N   26186.25005787 -.01353508  00000+0 -47410-1 0  9997
2 68876  51.8786 155.0627 0006402  14.3479 133.0361 15.31935576  5083
KUIPER-00482            
1 68877U 26095P   26186.25005787 -.00017451  00000+0 -22242-2 0  9998
2 68877  51.8996 160.3369 0001215  95.2716   7.2565 14.80708765  2635
KUIPER-00483            
1 68878U 26095Q   26186.01315183  .00015256  00000+0  21962-2 0  9994
2 68878  51.8986 173.8468 0002169 213.5062 146.5762 14.76491525 10220
KUIPER-00488            
1 68879U 26095R   26186.25005787 -.01098879  00000+0 -76312-1 0  9990
2 68879  51.8883 157.1343 0011381  40.7198  75.0157 15.07958780  3693
KUIPER-00489            
1 68880U 26095S   26186.25005787  .00030065  00000+0  92376-3 0  9992
2 68880  51.8751 155.9221 0011868  12.0992  62.5138 15.33391986  5683
KUIPER-00499            
1 68881U 26095T   26186.25005787 -.00913942  00000+0 -46358-1 0  9996
2 68881  51.8770 156.5201 0008159  24.8636  66.6671 15.19050775  5369
KUIPER-00500            
1 68882U 26095U   26185.99327392  .00003254  00000+0  45557-3 0  9992
2 68882  51.8989 171.9167 0001281 331.0173  29.0718 14.79939583 10259
KUIPER-00502            
1 68883U 26095V   26185.94492461  .00055733  00000+0  14426-2 0  9997
2 68883  51.8777 156.3368 0006510  14.1969 345.9200 15.38505972 10463
KUIPER-00503            
1 68884U 26095W   26185.96222520  .00001906  00000+0  27896-3 0  9996
2 68884  51.8960 169.5504 0000762  84.9810 275.1239 14.79931332 10282
