OBJECT_NAME,OBJECT_ID,EPOCH,MEAN_MOTION,ECCENTRICITY,INCLINATION,RA_OF_ASC_NODE,ARG_OF_PERICENTER,MEAN_ANOMALY,EPHEMERIS_TYPE,CLASSIFICATION_TYPE,NORAD_CAT_ID,ELEMENT_SET_NO,REV_AT_EPOCH,BSTAR,MEAN_MOTION_DOT,MEAN_MOTION_DDOT
STARLINK-37467,2026-094S,2026-07-04T14:41:58.673760,15.33476480,.00013502,97.2831,199.8806,75.8108,284.3284,0,U,68855,999,1072,-.2368241E-3,-.7721E-4,0
STARLINK-37483,2026-094T,2026-07-05T00:01:53.229792,15.33487533,.00001702,97.2854,200.2725,45.9424,314.1833,0,U,68856,999,1078,.14110011E-2,.45815E-3,0
STARLINK-37468,2026-094U,2026-07-04T23:57:58.652928,15.33483677,.00003453,97.2834,200.2744,312.2571,47.8642,0,U,68857,999,1078,.18670784E-2,.60761E-3,0
STARLINK-37441,2026-094V,2026-07-04T23:54:03.352032,15.33480767,.0001131,97.2834,200.2776,93.0429,267.0944,0,U,68858,999,1078,.10839132E-2,.3512E-3,0
STARLINK-37488,2026-094W,2026-07-04T23:50:08.394144,15.33505746,.0002027,97.2834,200.2828,85.4869,274.6605,0,U,68859,999,1078,.16070864E-2,.52269E-3,0
STARLINK-37388,2026-094X,2026-07-04T23:42:18.990720,15.33506516,.00014388,97.2826,200.2891,97.6518,262.4888,0,U,68860,999,1078,.16486194E-2,.53632E-3,0
STARLINK-37479,2026-094Y,2026-07-04T23:34:28.772544,15.33498987,.00016988,97.2828,200.2967,87.8959,272.2478,0,U,68861,999,1078,.14298853E-2,.46451E-3,0
STARLINK-37453,2026-094Z,2026-07-04T19:04:19.600320,15.33471878,.00009795,97.2827,200.0938,102.9601,257.1751,0,U,68862,999,1075,.17658378E-2,.57416E-3,0
STARLINK-37430,2026-094AA,2026-07-04T23:38:23.685504,15.33479322,.00016029,97.2832,200.2929,100.0417,260.1007,0,U,68863,999,1078,.12197662E-2,.39553E-3,0
KUIPER-00299,2026-095A,2026-07-04T22:24:27.037728,14.76463106,.00018408,51.8987,170.5030,226.8484,133.2323,0,U,68864,999,1026,.34502034E-3,.2209E-4,0
KUIPER-00353,2026-095B,2026-07-05T06:00:04.999968,15.05063178,.00024739,51.9049,156.6914,19.0696,71.3288,0,U,68865,999,508,-.89411152E-1,-.1179768E-1,0
KUIPER-00357,2026-095C,2026-07-05T00:00:02.999808,14.80000024,.00007273,51.9004,164.3906,55.9928,116.7624,0,U,68866,999,467,-.64145329E-3,-.5115E-4,0
KUIPER-00364,2026-095D,2026-07-05T00:00:02.999808,14.80036284,.00022067,51.9023,166.8938,146.3928,221.9978,0,U,68867,999,466,-.16708841E-2,-.12967E-3,0
KUIPER-00375,2026-095E,2026-07-05T06:00:04.999968,14.97239147,.00028306,51.8980,158.0125,42.3672,123.7707,0,U,68868,999,556,-.20695618E+0,-.2191757E-1,0
KUIPER-00433,2026-095F,2026-07-04T22:58:22.472256,14.79922097,.00007962,51.8997,174.5811,71.5733,288.5316,0,U,68869,999,1021,.53283436E-3,.3842E-4,0
KUIPER-00437,2026-095G,2026-07-04T15:14:36.752640,15.38386190,.00087946,51.8782,158.0012,22.5834,337.5539,0,U,68870,999,1041,.20283266E-2,.78494E-3,0
KUIPER-00448,2026-095H,2026-07-05T06:00:04.999968,14.76603389,.00018735,51.9030,161.3106,171.8360,7.4505,0,U,68871,999,475,-.23510774E-2,-.16741E-3,0
KUIPER-00459,2026-095J,2026-07-05T06:00:04.999968,15.32109994,.00104455,51.8716,156.0388,20.2302,339.7660,0,U,68872,999,499,.11508262E-2,.36066E-3,0
KUIPER-00468,2026-095K,2026-07-03T07:48:00.297216,15.37947257,.0004482,51.8814,164.2391,349.2897,10.7993,0,U,68873,999,1021,.92731E-3,.34927E-3,0
KUIPER-00476,2026-095L,2026-07-04T21:44:52.802016,15.34463558,.00094615,51.8723,157.5142,16.4994,343.6298,0,U,68874,999,1044,.1177896E-2,.39798E-3,0
KUIPER-00478,2026-095M,2026-07-05T06:00:04.999968,15.22087682,.0008168,51.8813,155.7052,20.0767,178.3095,0,U,68875,999,509,-.65200702E-1,-.1375776E-1,0
KUIPER-00480,2026-095N,2026-07-05T06:00:04.999968,15.31935576,.00064029,51.8786,155.0627,14.3479,133.0361,0,U,68876,999,508,-.47409984E-1,-.1353508E-1,0
KUIPER-00482,2026-095P,2026-07-05T06:00:04.999968,14.80708765,.00012153,51.8996,160.3369,95.2716,7.2565,0,U,68877,999,263,-.22242036E-2,-.17451E-3,0
KUIPER-00483,2026-095Q,2026-07-05T00:18:56.318112,14.76491525,.00021691,51.8986,173.8468,213.5062,146.5762,0,U,68878,999,1022,.21962233E-2,.15256E-3,0
KUIPER-00488,2026-095R,2026-07-05T06:00:04.999968,15.07958780,.00113815,51.8883,157.1343,40.7198,75.0157,0,U,68879,999,369,-.76311913E-1,-.1098879E-1,0
KUIPER-00489,2026-095S,2026-07-05T06:00:04.999968,15.33391986,.0011868,51.8751,155.9221,12.0992,62.5138,0,U,68880,999,568,.92376211E-3,.30065E-3,0
KUIPER-00499,2026-095T,2026-07-05T06:00:04.999968,15.19050775,.00081596,51.8770,156.5201,24.8636,66.6671,0,U,68881,999,536,-.46358172E-1,-.913942E-2,0
KUIPER-00500,2026-095U,2026-07-04T23:50:18.866688,14.79939583,.00012811,51.8989,171.9167,331.0173,29.0718,0,U,68882,999,1025,.45557294E-3,.3254E-4,0
KUIPER-00502,2026-095V,2026-07-04T22:40:41.486304,15.38505972,.00065108,51.8777,156.3368,14.1969,345.9200,0,U,68883,999,1046,.14425844E-2,.55733E-3,0
KUIPER-00503,2026-095W,2026-07-04T23:05:36.257280,14.79931332,.00007629,51.8960,169.5504,84.9810,275.1239,0,U,68884,999,1028,.27895877E-3,.1906E-4,0
